{"type": "FeatureCollection", "features": [ {"type": "Feature", "properties": {"norad_id": 32289, "name": "YAOGAN-3", "group": "resource", "lat": -14.91513575953905, "lon": -170.55590867867483, "alt_km": 603.6970339425707, "timestamp": "2025-12-10T21:43:21.743098+00:00", "meta": {"OBJECT_NAME": "YAOGAN-3", "OBJECT_ID": "2007-055A", "EPOCH": "2025-12-10T14:24:10.550304", "MEAN_MOTION": 14.89840399, "ECCENTRICITY": 0.00013381, "INCLINATION": 97.8364, "RA_OF_ASC_NODE": 11.2442, "ARG_OF_PERICENTER": 72.3532, "MEAN_ANOMALY": 287.7832, "EPHEMERIS_TYPE": 0, "CLASSIFICATION_TYPE": "U", "NORAD_CAT_ID": 32289, "ELEMENT_SET_NO": 999, "REV_AT_EPOCH": 97777, "BSTAR": 0.0004033879, "MEAN_MOTION_DOT": 3.819e-05, "MEAN_MOTION_DDOT": 0}, "tle": {"line1": "1 32289U 07055A   25344.60012211  .00003819  00000+0  40339-3 0  9994", "line2": "2 32289  97.8364  11.2442 0001338  72.3532 287.7832 14.89840399977773"}}, "geometry": {"type": "Point", "coordinates": [-170.55590867867483, -14.91513575953905]}}, {"type": "Feature", "properties": {"norad_id": 32376, "name": "COSMO-SKYMED 2", "group": "resource", "lat": 15.031499230264311, "lon": -11.61184322848509, "alt_km": 623.2003541393451, "timestamp": "2025-12-10T21:43:21.743109+00:00", "meta": {"OBJECT_NAME": "COSMO-SKYMED 2", "OBJECT_ID": "2007-059A", "EPOCH": "2025-12-10T14:30:04.080960", "MEAN_MOTION": 14.82162245, "ECCENTRICITY": 0.00015284, "INCLINATION": 97.8812, "RA_OF_ASC_NODE": 165.9601, "ARG_OF_PERICENTER": 85.2862, "MEAN_ANOMALY": 274.8526, "EPHEMERIS_TYPE": 0, "CLASSIFICATION_TYPE": "U", "NORAD_CAT_ID": 32376, "ELEMENT_SET_NO": 999, "REV_AT_EPOCH": 97406, "BSTAR": 0.00012481377, "MEAN_MOTION_DOT": 9.42e-06, "MEAN_MOTION_DDOT": 0}, "tle": {"line1": "1 32376U 07059A   25344.60421390  .00000942  00000+0  12481-3 0  9998", "line2": "2 32376  97.8812 165.9601 0001528  85.2862 274.8526 14.82162245974068"}}, "geometry": {"type": "Point", "coordinates": [-11.61184322848509, 15.031499230264311]}}, {"type": "Feature", "properties": {"norad_id": 32382, "name": "RADARSAT-2", "group": "resource", "lat": 78.50053688451048, "lon": -142.56981193784995, "alt_km": 783.6705638967987, "timestamp": "2025-12-10T21:43:21.743119+00:00", "meta": {"OBJECT_NAME": "RADARSAT-2", "OBJECT_ID": "2007-061A", "EPOCH": "2025-12-10T14:33:01.924992", "MEAN_MOTION": 14.29980558, "ECCENTRICITY": 0.00011169, "INCLINATION": 98.5797, "RA_OF_ASC_NODE": 349.2269, "ARG_OF_PERICENTER": 86.1369, "MEAN_ANOMALY": 273.9941, "EPHEMERIS_TYPE": 0, "CLASSIFICATION_TYPE": "U", "NORAD_CAT_ID": 32382, "ELEMENT_SET_NO": 999, "REV_AT_EPOCH": 93900, "BSTAR": -4.66485e-06, "MEAN_MOTION_DOT": -5.6e-07, "MEAN_MOTION_DDOT": 0}, "tle": {"line1": "1 32382U 07061A   25344.60627228 -.00000056  00000+0 -46648-5 0  9998", "line2": "2 32382  98.5797 349.2269 0001116  86.1369 273.9941 14.29980558939009"}}, "geometry": {"type": "Point", "coordinates": [-142.56981193784995, 78.50053688451048]}}, {"type": "Feature", "properties": {"norad_id": 32783, "name": "CARTOSAT-2A", "group": "resource", "lat": -34.15286684471452, "lon": 40.116251002706264, "alt_km": 632.8965917361347, "timestamp": "2025-12-10T21:43:21.743130+00:00", "meta": {"OBJECT_NAME": "CARTOSAT-2A", "OBJECT_ID": "2008-021A", "EPOCH": "2025-12-10T13:45:33.221952", "MEAN_MOTION": 14.78931405, "ECCENTRICITY": 0.00121192, "INCLINATION": 97.7928, "RA_OF_ASC_NODE": 34.4641, "ARG_OF_PERICENTER": 11.4664, "MEAN_ANOMALY": 348.6822, "EPHEMERIS_TYPE": 0, "CLASSIFICATION_TYPE": "U", "NORAD_CAT_ID": 32783, "ELEMENT_SET_NO": 999, "REV_AT_EPOCH": 95092, "BSTAR": 0.00022586277, "MEAN_MOTION_DOT": 1.617e-05, "MEAN_MOTION_DDOT": 0}, "tle": {"line1": "1 32783U 08021A   25344.57330118  .00001617  00000+0  22586-3 0  9990", "line2": "2 32783  97.7928  34.4641 0012119  11.4664 348.6822 14.78931405950925"}}, "geometry": {"type": "Point", "coordinates": [40.116251002706264, -34.15286684471452]}}, {"type": "Feature", "properties": {"norad_id": 33320, "name": "HUANJING 1A (HJ-1A)", "group": "resource", "lat": 17.821506234084964, "lon": 155.758208846377, "alt_km": 626.5434715289293, "timestamp": "2025-12-10T21:43:21.743140+00:00", "meta": {"OBJECT_NAME": "HUANJING 1A (HJ-1A)", "OBJECT_ID": "2008-041A", "EPOCH": "2025-12-10T14:31:15.950208", "MEAN_MOTION": 14.83383381, "ECCENTRICITY": 0.00203198, "INCLINATION": 97.6545, "RA_OF_ASC_NODE": 332.9927, "ARG_OF_PERICENTER": 41.2682, "MEAN_ANOMALY": 319.0064, "EPHEMERIS_TYPE": 0, "CLASSIFICATION_TYPE": "U", "NORAD_CAT_ID": 33320, "ELEMENT_SET_NO": 999, "REV_AT_EPOCH": 93044, "BSTAR": 0.00028518023, "MEAN_MOTION_DOT": 2.296e-05, "MEAN_MOTION_DDOT": 0}, "tle": {"line1": "1 33320U 08041A   25344.60504572  .00002296  00000+0  28518-3 0  9996", "line2": "2 33320  97.6545 332.9927 0020319  41.2682 319.0064 14.83383381930447"}}, "geometry": {"type": "Point", "coordinates": [155.758208846377, 17.821506234084964]}}, {"type": "Feature", "properties": {"norad_id": 33321, "name": "HUANJING 1B (HJ-1B)", "group": "resource", "lat": 25.87464312487302, "lon": -26.751352559959017, "alt_km": 604.2342811883564, "timestamp": "2025-12-10T21:43:21.743150+00:00", "meta": {"OBJECT_NAME": "HUANJING 1B (HJ-1B)", "OBJECT_ID": "2008-041B", "EPOCH": "2025-12-10T15:07:38.760672", "MEAN_MOTION": 14.82812326, "ECCENTRICITY": 0.00382813, "INCLINATION": 97.6402, "RA_OF_ASC_NODE": 336.719, "ARG_OF_PERICENTER": 82.2476, "MEAN_ANOMALY": 278.3082, "EPHEMERIS_TYPE": 0, "CLASSIFICATION_TYPE": "U", "NORAD_CAT_ID": 33321, "ELEMENT_SET_NO": 999, "REV_AT_EPOCH": 93046, "BSTAR": 0.00023071337, "MEAN_MOTION_DOT": 1.839e-05, "MEAN_MOTION_DDOT": 0}, "tle": {"line1": "1 33321U 08041B   25344.63030973  .00001839  00000+0  23071-3 0  9990", "line2": "2 33321  97.6402 336.7190 0038281  82.2476 278.3082 14.82812326930461"}}, "geometry": {"type": "Point", "coordinates": [-26.751352559959017, 25.87464312487302]}}, {"type": "Feature", "properties": {"norad_id": 33331, "name": "GEOEYE 1", "group": "resource", "lat": 47.81981938321203, "lon": -114.7194052746295, "alt_km": 675.1655139042914, "timestamp": "2025-12-10T21:43:21.743162+00:00", "meta": {"OBJECT_NAME": "GEOEYE 1", "OBJECT_ID": "2008-042A", "EPOCH": "2025-12-10T14:34:00.179328", "MEAN_MOTION": 14.64808231, "ECCENTRICITY": 0.00027484, "INCLINATION": 98.1255, "RA_OF_ASC_NODE": 55.9143, "ARG_OF_PERICENTER": 286.0097, "MEAN_ANOMALY": 74.0803, "EPHEMERIS_TYPE": 0, "CLASSIFICATION_TYPE": "U", "NORAD_CAT_ID": 33331, "ELEMENT_SET_NO": 999, "REV_AT_EPOCH": 92254, "BSTAR": 0.00019843942, "MEAN_MOTION_DOT": 1.011e-05, "MEAN_MOTION_DDOT": 0}, "tle": {"line1": "1 33331U 08042A   25344.60694652  .00001011  00000+0  19844-3 0  9994", "line2": "2 33331  98.1255  55.9143 0002748 286.0097  74.0803 14.64808231922546"}}, "geometry": {"type": "Point", "coordinates": [-114.7194052746295, 47.81981938321203]}}, {"type": "Feature", "properties": {"norad_id": 33396, "name": "THEOS", "group": "resource", "lat": -74.38249630887493, "lon": 75.76678582111951, "alt_km": 833.1147307237698, "timestamp": "2025-12-10T21:43:21.743172+00:00", "meta": {"OBJECT_NAME": "THEOS", "OBJECT_ID": "2008-049A", "EPOCH": "2025-12-10T15:19:13.802016", "MEAN_MOTION": 14.20097285, "ECCENTRICITY": 0.00011226, "INCLINATION": 98.5865, "RA_OF_ASC_NODE": 42.7896, "ARG_OF_PERICENTER": 93.8854, "MEAN_ANOMALY": 266.2451, "EPHEMERIS_TYPE": 0, "CLASSIFICATION_TYPE": "U", "NORAD_CAT_ID": 33396, "ELEMENT_SET_NO": 999, "REV_AT_EPOCH": 89120, "BSTAR": 0.00024288102, "MEAN_MOTION_DOT": 4.75e-06, "MEAN_MOTION_DDOT": 0}, "tle": {"line1": "1 33396U 08049A   25344.63835419  .00000475  00000+0  24288-3 0  9994", "line2": "2 33396  98.5865  42.7896 0001122  93.8854 266.2451 14.20097285891200"}}, "geometry": {"type": "Point", "coordinates": [75.76678582111951, -74.38249630887493]}}, {"type": "Feature", "properties": {"norad_id": 33412, "name": "COSMO-SKYMED 3", "group": "resource", "lat": 11.495212220726444, "lon": 16.872516325971077, "alt_km": 541.1790454877837, "timestamp": "2025-12-10T21:43:21.743183+00:00", "meta": {"OBJECT_NAME": "COSMO-SKYMED 3", "OBJECT_ID": "2008-054A", "EPOCH": "2025-12-10T14:35:45.552768", "MEAN_MOTION": 15.05319334, "ECCENTRICITY": 0.00159017, "INCLINATION": 97.8462, "RA_OF_ASC_NODE": 194.9637, "ARG_OF_PERICENTER": 181.3658, "MEAN_ANOMALY": 178.7527, "EPHEMERIS_TYPE": 0, "CLASSIFICATION_TYPE": "U", "NORAD_CAT_ID": 33412, "ELEMENT_SET_NO": 999, "REV_AT_EPOCH": 92855, "BSTAR": 0.00042978233, "MEAN_MOTION_DOT": 6.104e-05, "MEAN_MOTION_DDOT": 0}, "tle": {"line1": "1 33412U 08054A   25344.60816612  .00006104  00000+0  42978-3 0  9991", "line2": "2 33412  97.8462 194.9637 0015901 181.3658 178.7527 15.05319334928558"}}, "geometry": {"type": "Point", "coordinates": [16.872516325971077, 11.495212220726444]}}, {"type": "Feature", "properties": {"norad_id": 33446, "name": "YAOGAN-4", "group": "resource", "lat": -60.08208019639519, "lon": -70.9814567387546, "alt_km": 619.7543911793964, "timestamp": "2025-12-10T21:43:21.743194+00:00", "meta": {"OBJECT_NAME": "YAOGAN-4", "OBJECT_ID": "2008-061A", "EPOCH": "2025-12-10T09:02:22.074432", "MEAN_MOTION": 14.82671071, "ECCENTRICITY": 0.00137719, "INCLINATION": 97.918, "RA_OF_ASC_NODE": 274.4991, "ARG_OF_PERICENTER": 331.4072, "MEAN_ANOMALY": 28.6385, "EPHEMERIS_TYPE": 0, "CLASSIFICATION_TYPE": "U", "NORAD_CAT_ID": 33446, "ELEMENT_SET_NO": 999, "REV_AT_EPOCH": 91768, "BSTAR": 0.00031259873, "MEAN_MOTION_DOT": 2.471e-05, "MEAN_MOTION_DDOT": 0}, "tle": {"line1": "1 33446U 08061A   25344.37664438  .00002471  00000+0  31260-3 0  9992", "line2": "2 33446  97.9180 274.4991 0013771 331.4072  28.6385 14.82671071917681"}}, "geometry": {"type": "Point", "coordinates": [-70.9814567387546, -60.08208019639519]}}]}